[{"OBJECT_NAME":"LUR-1","OBJECT_ID":"2024-149AQ","EPOCH":"2026-03-09T19:05:45.284064","MEAN_MOTION":15.28658648,"ECCENTRICITY":0.00027765,"INCLINATION":97.379,"RA_OF_ASC_NODE":148.4255,"ARG_OF_PERICENTER":309.1571,"MEAN_ANOMALY":50.9421,"EPHEMERIS_TYPE":0,"CLASSIFICATION_TYPE":"U","NORAD_CAT_ID":60506,"ELEMENT_SET_NO":999,"REV_AT_EPOCH":8678,"BSTAR":0.0003298462,"MEAN_MOTION_DOT":9.121e-5,"MEAN_MOTION_DDOT":0},{"OBJECT_NAME":"STARLINK-34844","OBJECT_ID":"2025-263B","EPOCH":"2026-03-09T02:37:31.688256","MEAN_MOTION":15.27577164,"ECCENTRICITY":0.00017896,"INCLINATION":43.0041,"RA_OF_ASC_NODE":353.6766,"ARG_OF_PERICENTER":255.4562,"MEAN_ANOMALY":104.6092,"EPHEMERIS_TYPE":0,"CLASSIFICATION_TYPE":"U","NORAD_CAT_ID":66486,"ELEMENT_SET_NO":999,"REV_AT_EPOCH":1876,"BSTAR":0.0016705604,"MEAN_MOTION_DOT":0.00045992,"MEAN_MOTION_DDOT":0}]
